NORAD_CAT_ID,OBJECT_NAME,OBJECT_TYPE,EPOCH,MEAN_MOTION,ECCENTRICITY,INCLINATION,RA_OF_ASC_NODE,ARG_OF_PERICENTER,MEAN_ANOMALY,BSTAR,MEAN_MOTION_DOT,MEAN_MOTION_DDOT,TLE_LINE0,TLE_LINE1,TLE_LINE2,SEMIMAJOR_AXIS,PERIOD,APOGEE,PERIGEE,DECAYED
52379.0,STARLINK-3800,PAYLOAD,2024-04-20 18:31:40,15.088262,0.0001319,53.2193,37.3051,77.4176,282.6964,-5.3836e-05,-1.144e-05,0.0,0 STARLINK-3800,1 52379U 22045BA  24111.77199211 -.00001144  00000-0 -53836-4 0  9996,2 52379  53.2193  37.3051 0001319  77.4176 282.6964 15.08826200112076,6917.923,95.438,540.7,538.875,0.0
52379.0,STARLINK-3800,PAYLOAD,2024-04-21 04:03:57,15.08844966,0.0001477,53.2195,35.5157,108.4996,251.6157,-0.00011436,-2.108e-05,0.0,0 STARLINK-3800,1 52379U 22045BA  24112.16942057 -.00002108  00000-0 -11436-3 0  9994,2 52379  53.2195  35.5157 0001477 108.4996 251.6157 15.08844966112131,6917.865,95.437,540.752,538.708,0.0
52379.0,STARLINK-3800,PAYLOAD,2024-04-21 18:22:27,15.08831766,0.0001617,53.2202,32.8439,81.365,278.7525,-6.6351e-05,-1.344e-05,0.0,0 STARLINK-3800,1 52379U 22045BA  24112.76559189 -.00001344  00000-0 -66351-4 0  9998,2 52379  53.2202  32.8439 0001617  81.3650 278.7525 15.08831766112228,6917.906,95.438,540.889,538.652,0.0
52379.0,STARLINK-3800,PAYLOAD,2024-04-22 03:54:44,15.08865205,0.0001424,53.2194,31.0593,85.859,274.2565,0.00016585,2.354e-05,0.0,0 STARLINK-3800,1 52379U 22045BA  24113.16301278  .00002354  00000-0  16585-3 0  9990,2 52379  53.2194  31.0593 0001424  85.8590 274.2565 15.08865205112284,6917.803,95.436,540.653,538.683,0.0
52379.0,STARLINK-3800,PAYLOAD,2024-04-22 18:13:14,15.088277,0.0001325,53.2209,28.3821,106.5954,253.5184,3.5694e-05,2.8e-06,0.0,0 STARLINK-3800,1 52379U 22045BA  24113.75919751  .00000280  00000-0  35694-4 0  9995,2 52379  53.2209  28.3821 0001325 106.5954 253.5184 15.08827700112374,6917.918,95.438,540.7,538.866,0.0
52379.0,STARLINK-3800,PAYLOAD,2024-04-23 00:34:46,15.08836513,0.0001906,53.2202,27.1974,92.7436,267.3774,0.00022563,3.304e-05,0.0,0 STARLINK-3800,1 52379U 22045BA  24114.02415486  .00003304  00000-0  22563-3 0  9992,2 52379  53.2202  27.1974 0001906  92.7436 267.3774 15.08836513112414,6917.891,95.438,541.075,538.437,0.0
52379.0,STARLINK-3800,PAYLOAD,2024-04-23 21:14:47,15.0884453,0.0001693,53.219,23.3349,76.7048,283.4133,0.00014233,1.978e-05,0.0,0 STARLINK-3800,1 52379U 22045BA  24114.88527274  .00001978  00000-0  14233-3 0  9995,2 52379  53.2190  23.3349 0001693  76.7048 283.4133 15.08844530112548,6917.867,95.437,540.903,538.56,0.0
52379.0,STARLINK-3800,PAYLOAD,2024-04-24 00:25:33,15.08850274,0.0001728,53.2205,22.7356,99.3562,260.7625,0.00017385,2.481e-05,0.0,0 STARLINK-3800,1 52379U 22045BA  24115.01774838  .00002481  00000-0  17385-3 0  9992,2 52379  53.2205  22.7356 0001728  99.3562 260.7625 15.08850274112565,6917.849,95.437,540.909,538.519,0.0
52379.0,STARLINK-3800,PAYLOAD,2024-04-24 21:05:34,15.08842806,0.0001858,53.2188,18.8674,117.9333,242.1847,-2.0099e-05,-6.08e-06,0.0,0 STARLINK-3800,1 52379U 22045BA  24115.87887033 -.00000608  00000-0 -20099-4 0  9996,2 52379  53.2188  18.8674 0001858 117.9333 242.1847 15.08842806112697,6917.872,95.437,541.022,538.451,0.0
52379.0,STARLINK-3800,PAYLOAD,2024-04-24 22:40:57,15.08843316,0.0001948,53.2194,18.5694,123.0177,237.1003,-2.4928e-05,-6.85e-06,0.0,0 STARLINK-3800,1 52379U 22045BA  24115.94510952 -.00000685  00000-0 -24928-4 0  9997,2 52379  53.2194  18.5694 0001948 123.0177 237.1003 15.08843316112704,6917.87,95.437,541.083,538.388,0.0
52379.0,STARLINK-3800,PAYLOAD,2024-04-25 03:27:06,15.08845799,0.0001431,53.2183,17.6729,106.6186,253.4963,-1.3959e-06,-3.1e-06,0.0,0 STARLINK-3800,1 52379U 22045BA  24116.14382773 -.00000310  00000-0 -13959-5 0  9996,2 52379  53.2183  17.6729 0001431 106.6186 253.4963 15.08845799112731,6917.863,95.437,540.718,538.738,0.0
52379.0,STARLINK-3800,PAYLOAD,2024-04-25 20:56:21,15.08840658,0.000161,53.2183,14.3991,103.8969,256.2203,-2.7952e-05,-7.33e-06,0.0,0 STARLINK-3800,1 52379U 22045BA  24116.87247373 -.00000733  00000-0 -27952-4 0  9998,2 52379  53.2183  14.3991 0001610 103.8969 256.2203 15.08840658112842,6917.878,95.438,540.857,538.63,0.0
52379.0,STARLINK-3800,PAYLOAD,2024-04-25 22:31:44,15.0884232,0.0001471,53.2181,14.1016,91.2261,268.89,-1.6176e-05,-5.45e-06,0.0,0 STARLINK-3800,1 52379U 22045BA  24116.93871154 -.00000545  00000-0 -16176-4 0  9992,2 52379  53.2181  14.1016 0001471  91.2261 268.8900 15.08842320112858,6917.873,95.437,540.756,538.721,0.0
52379.0,STARLINK-3800,PAYLOAD,2024-04-26 00:07:07,15.0885177,0.000156,53.219,13.8083,103.6054,256.5112,0.00022591,3.31e-05,0.0,0 STARLINK-3800,1 52379U 22045BA  24117.00494836  .00003310  00000-0  22591-3 0  9997,2 52379  53.2190  13.8083 0001560 103.6054 256.5112 15.08851770112864,6917.844,95.437,540.789,538.63,0.0
52379.0,STARLINK-3800,PAYLOAD,2024-04-26 09:39:26,15.08848562,0.0001407,53.2186,12.0277,99.6543,260.4608,0.00018488,2.656e-05,0.0,0 STARLINK-3800,1 52379U 22045BA  24117.40238786  .00002656  00000-0  18488-3 0  9993,2 52379  53.2186  12.0277 0001407  99.6543 260.4608 15.08848562112928,6917.854,95.437,540.693,538.746,0.0
52379.0,STARLINK-3800,PAYLOAD,2024-04-26 16:00:59,15.08846575,0.0001561,53.2196,10.8463,103.7844,256.3322,8.4155e-05,1.052e-05,0.0,0 STARLINK-3800,1 52379U 22045BA  24117.66735035  .00001052  00000-0  84155-4 0  9994,2 52379  53.2196  10.8463 0001561 103.7844 256.3322 15.08846575112967,6917.86,95.437,540.805,538.645,0.0
52379.0,STARLINK-3800,PAYLOAD,2024-04-27 01:33:16,15.08857646,0.0001431,53.2188,9.0487,88.9325,271.1831,0.0002222,3.252e-05,0.0,0 STARLINK-3800,1 52379U 22045BA  24118.06477843  .00003252  00000-0  22220-3 0  9997,2 52379  53.2188   9.0487 0001431  88.9325 271.1831 15.08857646113027,6917.826,95.436,540.681,538.702,0.0
52379.0,STARLINK-3800,PAYLOAD,2024-04-27 09:30:14,15.08835838,0.0001464,53.219,7.5644,83.1663,276.9495,-7.7869e-06,-4.12e-06,0.0,0 STARLINK-3800,1 52379U 22045BA  24118.39599772 -.00000412  00000-0 -77869-5 0  9997,2 52379  53.2190   7.5644 0001464  83.1663 276.9495 15.08835838113079,6917.893,95.438,540.771,538.745,0.0
52379.0,STARLINK-3800,PAYLOAD,2024-04-27 20:37:57,15.08831689,0.0001812,53.2191,5.4883,92.6833,267.4367,-9.7647e-05,-1.841e-05,0.0,0 STARLINK-3800,1 52379U 22045BA  24118.85968854 -.00001841  00000-0 -97647-4 0  9991,2 52379  53.2191   5.4883 0001812  92.6833 267.4367 15.08831689113144,6917.906,95.438,541.024,538.517,0.0
52379.0,STARLINK-3800,PAYLOAD,2024-04-27 22:13:20,15.08829127,0.0001653,53.2199,5.1929,100.504,259.6138,-0.00010988,-2.036e-05,0.0,0 STARLINK-3800,1 52379U 22045BA  24118.92593015 -.00002036  00000-0 -10988-3 0  9991,2 52379  53.2199   5.1929 0001653 100.5040 259.6138 15.08829127113156,6917.914,95.438,540.922,538.635,0.0
52379.0,STARLINK-3800,PAYLOAD,2024-04-28 09:21:01,15.08841837,0.0001768,53.2203,3.1083,117.4009,242.7163,-3.9821e-05,-9.22e-06,0.0,0 STARLINK-3800,1 52379U 22045BA  24119.38959986 -.00000922  00000-0 -39821-4 0  9995,2 52379  53.2203   3.1083 0001768 117.4009 242.7163 15.08841837113221,6917.875,95.437,540.963,538.517,0.0
52379.0,STARLINK-3800,PAYLOAD,2024-04-28 22:04:06,15.08843102,0.0001774,53.2203,0.7295,103.1995,256.9195,2.3673e-05,8.9e-07,0.0,0 STARLINK-3800,1 52379U 22045BA  24119.91951984  .00000089  00000-0  23673-4 0  9994,2 52379  53.2203   0.7295 0001774 103.1995 256.9195 15.08843102113300,6917.871,95.437,540.963,538.509,0.0
52379.0,STARLINK-3800,PAYLOAD,2024-04-29 09:11:48,15.08849604,0.0001292,53.2182,358.6489,91.7713,268.3427,-2.858e-05,-7.43e-06,0.0,0 STARLINK-3800,1 52379U 22045BA  24120.38319493 -.00000743  00000-0 -28580-4 0  9991,2 52379  53.2182 358.6489 0001292  91.7713 268.3427 15.08849604113376,6917.851,95.437,540.61,538.822,0.0
52379.0,STARLINK-3800,PAYLOAD,2024-04-29 21:54:53,15.08833079,0.0001351,53.2173,356.2695,98.8114,261.3031,0.00018979,2.733e-05,0.0,0 STARLINK-3800,1 52379U 22045BA  24120.91312322  .00002733  00000-0  18979-3 0  9993,2 52379  53.2173 356.2695 0001351  98.8114 261.3031 15.08833079113450,6917.902,95.438,540.701,538.832,0.0
52379.0,STARLINK-3800,PAYLOAD,2024-04-29 23:30:16,15.08842831,0.0001338,53.2177,355.97,103.8412,256.2729,0.00013297,1.829e-05,0.0,0 STARLINK-3800,1 52379U 22045BA  24120.97935830  .00001829  00000-0  13297-3 0  9997,2 52379  53.2177 355.9700 0001338 103.8412 256.2729 15.08842831113464,6917.872,95.437,540.662,538.811,0.0
52379.0,STARLINK-3800,PAYLOAD,2024-04-30 09:02:35,15.08840314,0.0001279,53.2174,354.1857,105.8757,254.2376,6.8195e-05,7.98e-06,0.0,0 STARLINK-3800,1 52379U 22045BA  24121.37680089  .00000798  00000-0  68195-4 0  9997,2 52379  53.2174 354.1857 0001279 105.8757 254.2376 15.08840314113520,6917.879,95.438,540.629,538.86,0.0
52379.0,STARLINK-3800,PAYLOAD,2024-04-30 20:10:17,15.0884001,0.000123,53.2173,352.1038,101.092,259.0211,8.11e-05,1.003e-05,0.0,0 STARLINK-3800,1 52379U 22045BA  24121.84048092  .00001003  00000-0  81100-4 0  9992,2 52379  53.2173 352.1038 0001230 101.0920 259.0211 15.08840010113596,6917.88,95.438,540.596,538.894,0.0
52379.0,STARLINK-3800,PAYLOAD,2024-04-30 21:45:40,15.0884534,0.0001296,53.2185,351.8075,96.4128,263.7012,1.6046e-05,-3.2e-07,0.0,0 STARLINK-3800,1 52379U 22045BA  24121.90672011 -.00000032  00000-0  16046-4 0  9992,2 52379  53.2185 351.8075 0001296  96.4128 263.7012 15.08845340113609,6917.864,95.437,540.626,538.833,0.0
52379.0,STARLINK-3800,PAYLOAD,2024-05-01 08:53:22,15.08851073,0.0001263,53.2178,349.7265,99.4127,260.7008,3.2644e-05,2.32e-06,0.0,0 STARLINK-3800,1 52379U 22045BA  24122.37039364  .00000232  00000-0  32644-4 0  9995,2 52379  53.2178 349.7265 0001263  99.4127 260.7008 15.08851073113673,6917.847,95.437,540.585,538.838,0.0
52379.0,STARLINK-3800,PAYLOAD,2024-05-01 21:36:26,15.08850719,0.0001407,53.2188,347.3468,96.5893,263.5259,9.1358e-05,1.167e-05,0.0,0 STARLINK-3800,1 52379U 22045BA  24122.90031009  .00001167  00000-0  91358-4 0  9997,2 52379  53.2188 347.3468 0001407  96.5893 263.5259 15.08850719113755,6917.848,95.437,540.686,538.739,0.0
